ISS OBJECT XK           
1 65731U 98067XK  26058.50363545  .00616656  17816-3  12327-2 0  9997
2 65731  51.6190 100.7577 0007188  28.6499 331.4904 15.99162927 25265
YOTSUBA-KULOVER         
1 65941U 98067XN  26058.38480506  .00161857  00000+0  99164-3 0  9999
2 65941  51.6226 110.5650 0006047   9.8005 350.3112 15.76267694 21872
BOTAN                   
1 65942U 98067XP  26058.83989444  .01392217  12524-2  16324-2 0  9995
2 65942  51.6102 101.4721 0008520  29.3265 330.8225 16.08226179 22033
E-KAGAKU-1              
1 65943U 98067XQ  26058.83127820  .00146391  00000+0  90200-3 0  9996
2 65943  51.6247 108.3117 0006376  20.3566 339.7687 15.76186777 21943
HRC MONOBLOCK CAMERA    
1 66052U 98067XR  26058.39710879  .00048635  00000+0  57057-3 0  9996
2 66052  51.6283 117.4313 0003170  49.9480 310.1791 15.60992325 20782
HTV-X1                  
1 66174U 25241A   26058.89712273  .00011820  00000+0  22726-3 0  9991
2 66174  51.6325 120.7666 0008321 140.4027 219.7571 15.48349372554471
SZ-21 MODULE            
1 66515U 25246C   26058.62877085  .00034956  00000+0  31215-3 0  9997
2 66515  41.4741 265.2557 0001443 287.0707  72.9977 15.67676592 16496
SHENZHOU-22             
1 66645U 25272A   26058.92327046  .00023822  00000+0  28713-3 0  9999
2 66645  41.4656 267.5676 0006196 211.0082 149.0391 15.60204146267528
SOYUZ-MS 28             
1 66664U 25275A   26058.89712273  .00011820  00000+0  22726-3 0  9992
2 66664  51.6325 120.7666 0008321 140.4027 219.7571 15.48349372554521
DUPLEX                  
1 66906U 98067XS  26058.43756321  .00034745  00000+0  50427-3 0  9992
2 66906  51.6294 120.7016 0001840  82.9676 277.1524 15.55480563 13536
ISS OBJECT XT           
1 66907U 98067XT  26058.44621190  .00125241  00000+0  11870-2 0  9999
2 66907  51.6259 117.7515 0004211  20.2087 339.9075 15.66015368 13575
ISS OBJECT XU           
1 66908U 98067XU  26058.38122110  .00126246  00000+0  11932-2 0  9996
2 66908  51.6254 118.0643 0004252  22.3654 337.7526 15.66080352 13566
